SL-16 R/B               
1 25400U 98043G   26032.45701711  .00000065  00000+0  46281-4 0  9999
2 25400  98.8195 345.5776 0010784 116.6996 243.5288 14.26040528433822
SL-16 R/B               
1 25407U 98045B   26032.05582818 -.00000193  00000+0 -73136-4 0  9992
2 25407  71.0096 258.6148 0005096  77.1649 283.0043 14.16186495421913
ISS (ZARYA)             
1 25544U 98067A   26032.43601913  .00006280  00000+0  12479-3 0  9991
2 25544  51.6317 251.5712 0011128  53.0689 307.1316 15.48319189550710
CZ-4B R/B               
1 25732U 99025C   26032.12099131  .00000065  00000+0  51840-4 0  9995
2 25732  98.6696  77.2568 0038184  90.2461 329.4498 14.18257575382980
OKEAN-O                 
1 25860U 99039A   26032.15078431  .00000820  00000+0  11452-3 0  9998
2 25860  97.9521  92.3992 0001909  92.6407 267.5023 14.80271726428981
SL-16 R/B               
1 25861U 99039B   26032.16522010  .00000670  00000+0  91781-4 0  9994
2 25861  98.0043  91.3014 0015226  21.1033 339.0804 14.81676743431453
DELTA 2 R/B             
1 25876U 99041E   26032.40773023  .00001974  00000+0  35498-3 0  9992
2 25876  51.7642  86.1637 0502620 241.2273 113.7299 14.11680125357907
HELIOS 1B               
1 25977U 99064A   26032.32487045  .00002002  00000+0  22710-3 0  9992
2 25977  98.1737 293.4934 0001713 124.0334 236.1044 14.87539935679859
TERRA                   
1 25994U 99068A   26032.40726485  .00000502  00000+0  11145-3 0  9991
2 25994  97.9668  87.2139 0001148 322.1456  48.4247 14.60972774389784
SL-16 R/B               
1 26070U 00006B   26032.48562198  .00000198  00000+0  12482-3 0  9994
2 26070  71.0024 173.9592 0018514 240.5268 119.4009 14.15818964343431
TITAN 4B R/B            
1 26474U 00047B   26032.44949166  .00003395  00000+0  21784-3 0  9994
2 26474  67.9899 142.3913 0036672  80.5542 279.9749 15.09251631387440
ENVISAT                 
1 27386U 02009A   26032.46500477  .00000132  00000+0  56753-4 0  9998
2 27386  98.3670 346.9391 0001264  91.9111  17.8177 14.39022441253967
