CCSDS_OMM_VERS = 2.0
CREATION_DATE  = 
ORIGINATOR     = 

OBJECT_NAME    = SL-16 R/B
OBJECT_ID      = 1998-043G
CENTER_NAME    = EARTH
REF_FRAME      = TEME
TIME_SYSTEM    = UTC
MEAN_ELEMENT_THEORY = SGP/SGP4

EPOCH          = 2026-02-01T10:58:06.278304
MEAN_MOTION    = 14.26040528
ECCENTRICITY   = .0010784
INCLINATION    = 98.8195
RA_OF_ASC_NODE = 345.5776
ARG_OF_PERICENTER = 116.6996
MEAN_ANOMALY   = 243.5288

EPHEMERIS_TYPE = 0
CLASSIFICATION_TYPE = U
NORAD_CAT_ID   = 25400
ELEMENT_SET_NO = 999
REV_AT_EPOCH   = 43382
BSTAR          = .46281E-4
MEAN_MOTION_DOT = .65E-6
MEAN_MOTION_DDOT = 0

CCSDS_OMM_VERS = 2.0
CREATION_DATE  = 
ORIGINATOR     = 

OBJECT_NAME    = SL-16 R/B
OBJECT_ID      = 1998-045B
CENTER_NAME    = EARTH
REF_FRAME      = TEME
TIME_SYSTEM    = UTC
MEAN_ELEMENT_THEORY = SGP/SGP4

EPOCH          = 2026-02-01T01:20:23.554752
MEAN_MOTION    = 14.16186495
ECCENTRICITY   = .00050961
INCLINATION    = 71.0096
RA_OF_ASC_NODE = 258.6148
ARG_OF_PERICENTER = 77.1649
MEAN_ANOMALY   = 283.0043

EPHEMERIS_TYPE = 0
CLASSIFICATION_TYPE = U
NORAD_CAT_ID   = 25407
ELEMENT_SET_NO = 999
REV_AT_EPOCH   = 42191
BSTAR          = -.73136301E-4
MEAN_MOTION_DOT = -.193E-5
MEAN_MOTION_DDOT = 0

CCSDS_OMM_VERS = 2.0
CREATION_DATE  = 
ORIGINATOR     = 

OBJECT_NAME    = ISS (ZARYA)
OBJECT_ID      = 1998-067A
CENTER_NAME    = EARTH
REF_FRAME      = TEME
TIME_SYSTEM    = UTC
MEAN_ELEMENT_THEORY = SGP/SGP4

EPOCH          = 2026-02-01T10:27:52.052832
MEAN_MOTION    = 15.48319189
ECCENTRICITY   = .0011128
INCLINATION    = 51.6317
RA_OF_ASC_NODE = 251.5712
ARG_OF_PERICENTER = 53.0689
MEAN_ANOMALY   = 307.1316

EPHEMERIS_TYPE = 0
CLASSIFICATION_TYPE = U
NORAD_CAT_ID   = 25544
ELEMENT_SET_NO = 999
REV_AT_EPOCH   = 55071
BSTAR          = .12479E-3
MEAN_MOTION_DOT = .628E-4
MEAN_MOTION_DDOT = 0

CCSDS_OMM_VERS = 2.0
CREATION_DATE  = 
ORIGINATOR     = 

OBJECT_NAME    = CZ-4B R/B
OBJECT_ID      = 1999-025C
CENTER_NAME    = EARTH
REF_FRAME      = TEME
TIME_SYSTEM    = UTC
MEAN_ELEMENT_THEORY = SGP/SGP4

EPOCH          = 2026-02-01T02:54:13.649184
MEAN_MOTION    = 14.18257575
ECCENTRICITY   = .0038184
INCLINATION    = 98.6696
RA_OF_ASC_NODE = 77.2568
ARG_OF_PERICENTER = 90.2461
MEAN_ANOMALY   = 329.4498

EPHEMERIS_TYPE = 0
CLASSIFICATION_TYPE = U
NORAD_CAT_ID   = 25732
ELEMENT_SET_NO = 999
REV_AT_EPOCH   = 38298
BSTAR          = .5184E-4
MEAN_MOTION_DOT = .65E-6
MEAN_MOTION_DDOT = 0

CCSDS_OMM_VERS = 2.0
CREATION_DATE  = 
ORIGINATOR     = 

OBJECT_NAME    = OKEAN-O
OBJECT_ID      = 1999-039A
CENTER_NAME    = EARTH
REF_FRAME      = TEME
TIME_SYSTEM    = UTC
MEAN_ELEMENT_THEORY = SGP/SGP4

EPOCH          = 2026-02-01T03:37:07.764384
MEAN_MOTION    = 14.80271726
ECCENTRICITY   = .0001909
INCLINATION    = 97.9521
RA_OF_ASC_NODE = 92.3992
ARG_OF_PERICENTER = 92.6407
MEAN_ANOMALY   = 267.5023

EPHEMERIS_TYPE = 0
CLASSIFICATION_TYPE = U
NORAD_CAT_ID   = 25860
ELEMENT_SET_NO = 999
REV_AT_EPOCH   = 42898
BSTAR          = .11452E-3
MEAN_MOTION_DOT = .82E-5
MEAN_MOTION_DDOT = 0

CCSDS_OMM_VERS = 2.0
CREATION_DATE  = 
ORIGINATOR     = 

OBJECT_NAME    = SL-16 R/B
OBJECT_ID      = 1999-039B
CENTER_NAME    = EARTH
REF_FRAME      = TEME
TIME_SYSTEM    = UTC
MEAN_ELEMENT_THEORY = SGP/SGP4

EPOCH          = 2026-02-01T03:57:55.016640
MEAN_MOTION    = 14.81676743
ECCENTRICITY   = .0015226
INCLINATION    = 98.0043
RA_OF_ASC_NODE = 91.3014
ARG_OF_PERICENTER = 21.1033
MEAN_ANOMALY   = 339.0804

EPHEMERIS_TYPE = 0
CLASSIFICATION_TYPE = U
NORAD_CAT_ID   = 25861
ELEMENT_SET_NO = 999
REV_AT_EPOCH   = 43145
BSTAR          = .91781E-4
MEAN_MOTION_DOT = .67E-5
MEAN_MOTION_DDOT = 0

CCSDS_OMM_VERS = 2.0
CREATION_DATE  = 
ORIGINATOR     = 

OBJECT_NAME    = DELTA 2 R/B
OBJECT_ID      = 1999-041E
CENTER_NAME    = EARTH
REF_FRAME      = TEME
TIME_SYSTEM    = UTC
MEAN_ELEMENT_THEORY = SGP/SGP4

EPOCH          = 2026-02-01T09:47:07.891872
MEAN_MOTION    = 14.11680125
ECCENTRICITY   = .050262
INCLINATION    = 51.7642
RA_OF_ASC_NODE = 86.1637
ARG_OF_PERICENTER = 241.2273
MEAN_ANOMALY   = 113.7299

EPHEMERIS_TYPE = 0
CLASSIFICATION_TYPE = U
NORAD_CAT_ID   = 25876
ELEMENT_SET_NO = 999
REV_AT_EPOCH   = 35790
BSTAR          = .35498E-3
MEAN_MOTION_DOT = .1974E-4
MEAN_MOTION_DDOT = 0

CCSDS_OMM_VERS = 2.0
CREATION_DATE  = 
ORIGINATOR     = 

OBJECT_NAME    = HELIOS 1B
OBJECT_ID      = 1999-064A
CENTER_NAME    = EARTH
REF_FRAME      = TEME
TIME_SYSTEM    = UTC
MEAN_ELEMENT_THEORY = SGP/SGP4

EPOCH          = 2026-02-01T07:47:48.806880
MEAN_MOTION    = 14.87539935
ECCENTRICITY   = .0001713
INCLINATION    = 98.1737
RA_OF_ASC_NODE = 293.4934
ARG_OF_PERICENTER = 124.0334
MEAN_ANOMALY   = 236.1044

EPHEMERIS_TYPE = 0
CLASSIFICATION_TYPE = U
NORAD_CAT_ID   = 25977
ELEMENT_SET_NO = 999
REV_AT_EPOCH   = 67985
BSTAR          = .2271E-3
MEAN_MOTION_DOT = .2002E-4
MEAN_MOTION_DDOT = 0

CCSDS_OMM_VERS = 2.0
CREATION_DATE  = 
ORIGINATOR     = 

OBJECT_NAME    = TERRA
OBJECT_ID      = 1999-068A
CENTER_NAME    = EARTH
REF_FRAME      = TEME
TIME_SYSTEM    = UTC
MEAN_ELEMENT_THEORY = SGP/SGP4

EPOCH          = 2026-02-01T09:46:27.683040
MEAN_MOTION    = 14.60972774
ECCENTRICITY   = .0001148
INCLINATION    = 97.9668
RA_OF_ASC_NODE = 87.2139
ARG_OF_PERICENTER = 322.1456
MEAN_ANOMALY   = 48.4247

EPHEMERIS_TYPE = 0
CLASSIFICATION_TYPE = U
NORAD_CAT_ID   = 25994
ELEMENT_SET_NO = 999
REV_AT_EPOCH   = 38978
BSTAR          = .11145E-3
MEAN_MOTION_DOT = .502E-5
MEAN_MOTION_DDOT = 0

CCSDS_OMM_VERS = 2.0
CREATION_DATE  = 
ORIGINATOR     = 

OBJECT_NAME    = SL-16 R/B
OBJECT_ID      = 2000-006B
CENTER_NAME    = EARTH
REF_FRAME      = TEME
TIME_SYSTEM    = UTC
MEAN_ELEMENT_THEORY = SGP/SGP4

EPOCH          = 2026-02-01T11:39:17.739072
MEAN_MOTION    = 14.15818964
ECCENTRICITY   = .0018514
INCLINATION    = 71.0024
RA_OF_ASC_NODE = 173.9592
ARG_OF_PERICENTER = 240.5268
MEAN_ANOMALY   = 119.4009

EPHEMERIS_TYPE = 0
CLASSIFICATION_TYPE = U
NORAD_CAT_ID   = 26070
ELEMENT_SET_NO = 999
REV_AT_EPOCH   = 34343
BSTAR          = .12482E-3
MEAN_MOTION_DOT = .198E-5
MEAN_MOTION_DDOT = 0

CCSDS_OMM_VERS = 2.0
CREATION_DATE  = 
ORIGINATOR     = 

OBJECT_NAME    = TITAN 4B R/B
OBJECT_ID      = 2000-047B
CENTER_NAME    = EARTH
REF_FRAME      = TEME
TIME_SYSTEM    = UTC
MEAN_ELEMENT_THEORY = SGP/SGP4

EPOCH          = 2026-02-01T10:47:16.079424
MEAN_MOTION    = 15.09251631
ECCENTRICITY   = .0036672
INCLINATION    = 67.9899
RA_OF_ASC_NODE = 142.3913
ARG_OF_PERICENTER = 80.5542
MEAN_ANOMALY   = 279.9749

EPHEMERIS_TYPE = 0
CLASSIFICATION_TYPE = U
NORAD_CAT_ID   = 26474
ELEMENT_SET_NO = 999
REV_AT_EPOCH   = 38744
BSTAR          = .21784E-3
MEAN_MOTION_DOT = .3395E-4
MEAN_MOTION_DDOT = 0

CCSDS_OMM_VERS = 2.0
CREATION_DATE  = 
ORIGINATOR     = 

OBJECT_NAME    = ENVISAT
OBJECT_ID      = 2002-009A
CENTER_NAME    = EARTH
REF_FRAME      = TEME
TIME_SYSTEM    = UTC
MEAN_ELEMENT_THEORY = SGP/SGP4

EPOCH          = 2026-02-01T11:09:36.412128
MEAN_MOTION    = 14.39022441
ECCENTRICITY   = .0001264
INCLINATION    = 98.3670
RA_OF_ASC_NODE = 346.9391
ARG_OF_PERICENTER = 91.9111
MEAN_ANOMALY   = 17.8177

EPHEMERIS_TYPE = 0
CLASSIFICATION_TYPE = U
NORAD_CAT_ID   = 27386
ELEMENT_SET_NO = 999
REV_AT_EPOCH   = 25396
BSTAR          = .56753E-4
MEAN_MOTION_DOT = .132E-5
MEAN_MOTION_DDOT = 0

